STARLINK-1028
1 24733C 19074W   21325.11526966  .00004167  00000-0  27924-3 0  3259
2 24733  53.0553  32.7193 0001195  68.4964 358.1949 15.06385149    14
